{
  "type": "FeatureCollection",
  "features": [
    {
      "type": "Feature",
      "properties": {
        "norad_id": 41599,
        "name": "CARTOSAT-2C",
        "group": "resource",
        "lat": 73.67819233634533,
        "lon": -95.2841986986653,
        "alt_km": 500.67396772899974,
        "timestamp": "2025-12-26T23:26:41.810916+00:00",
        "meta_object_name": "CARTOSAT-2C",
        "meta_object_id": "2016-040A",
        "meta_epoch": "2025-12-26T18:14:42.142272",
        "meta_mean_motion": 15.19247239,
        "meta_eccentricity": 0.0010645,
        "meta_inclination": 97.4744,
        "meta_ra_of_asc_node": 57.8641,
        "meta_arg_of_pericenter": 18.3374,
        "meta_mean_anomaly": 341.8242,
        "meta_ephemeris_type": 0,
        "meta_classification_type": "U",
        "meta_norad_cat_id": 41599,
        "meta_element_set_no": 999,
        "meta_rev_at_epoch": 52753,
        "meta_bstar": 0.00029156,
        "meta_mean_motion_dot": 6.085e-05,
        "meta_mean_motion_ddot": 0,
        "tle_line1": "1 41599U 16040A   25360.76020998  .00006085  00000+0  29156-3 0  9990",
        "tle_line2": "2 41599  97.4744  57.8641 0010645  18.3374 341.8242 15.19247239527537"
      },
      "geometry": {
        "type": "Point",
        "coordinates": [
          -95.2841986986653,
          73.67819233634533
        ]
      }
    },
    {
      "type": "Feature",
      "properties": {
        "norad_id": 41601,
        "name": "SKYSAT-C1",
        "group": "resource",
        "lat": 49.40347070242389,
        "lon": -134.59183115480883,
        "alt_km": 463.4490038984877,
        "timestamp": "2025-12-26T23:26:41.810926+00:00",
        "meta_object_name": "SKYSAT-C1",
        "meta_object_id": "2016-040C",
        "meta_epoch": "2025-12-26T15:02:45.250368",
        "meta_mean_motion": 15.32840769,
        "meta_eccentricity": 7.87e-05,
        "meta_inclination": 96.9809,
        "meta_ra_of_asc_node": 36.8576,
        "meta_arg_of_pericenter": 308.5435,
        "meta_mean_anomaly": 51.5738,
        "meta_ephemeris_type": 0,
        "meta_classification_type": "U",
        "meta_norad_cat_id": 41601,
        "meta_element_set_no": 999,
        "meta_rev_at_epoch": 53140,
        "meta_bstar": 0.0002948,
        "meta_mean_motion_dot": 9.28e-05,
        "meta_mean_motion_ddot": 0,
        "tle_line1": "1 41601U 16040C   25360.62691262  .00009280  00000+0  29480-3 0  9997",
        "tle_line2": "2 41601  96.9809  36.8576 0000787 308.5435  51.5738 15.32840769531407"
      },
      "geometry": {
        "type": "Point",
        "coordinates": [
          -134.59183115480883,
          49.40347070242389
        ]
      }
    },
    {
      "type": "Feature",
      "properties": {
        "norad_id": 41603,
        "name": "LAPAN-A3",
        "group": "resource",
        "lat": -36.97231991771083,
        "lon": 172.59858384157752,
        "alt_km": 474.079697965416,
        "timestamp": "2025-12-26T23:26:41.810935+00:00",
        "meta_object_name": "LAPAN-A3",
        "meta_object_id": "2016-040E",
        "meta_epoch": "2025-12-26T17:47:41.545248",
        "meta_mean_motion": 15.3166782,
        "meta_eccentricity": 0.0008638,
        "meta_inclination": 97.1437,
        "meta_ra_of_asc_node": 357.7893,
        "meta_arg_of_pericenter": 275.3209,
        "meta_mean_anomaly": 84.7048,
        "meta_ephemeris_type": 0,
        "meta_classification_type": "U",
        "meta_norad_cat_id": 41603,
        "meta_element_set_no": 999,
        "meta_rev_at_epoch": 52840,
        "meta_bstar": 0.00015524,
        "meta_mean_motion_dot": 4.677e-05,
        "meta_mean_motion_ddot": 0,
        "tle_line1": "1 41603U 16040E   25360.74145307  .00004677  00000+0  15524-3 0  9995",
        "tle_line2": "2 41603  97.1437 357.7893 0008638 275.3209  84.7048 15.31667820528401"
      },
      "geometry": {
        "type": "Point",
        "coordinates": [
          172.59858384157752,
          -36.97231991771083
        ]
      }
    },
    {
      "type": "Feature",
      "properties": {
        "norad_id": 41604,
        "name": "BIROS",
        "group": "resource",
        "lat": -79.90817660522966,
        "lon": 77.21629800326649,
        "alt_km": 296.2516871316966,
        "timestamp": "2025-12-26T23:26:41.810945+00:00",
        "meta_object_name": "BIROS",
        "meta_object_id": "2016-040F",
        "meta_epoch": "2025-12-26T14:45:38.450304",
        "meta_mean_motion": 15.95497863,
        "meta_eccentricity": 0.000398,
        "meta_inclination": 97.0651,
        "meta_ra_of_asc_node": 32.6597,
        "meta_arg_of_pericenter": 120.7736,
        "meta_mean_anomaly": 239.3933,
        "meta_ephemeris_type": 0,
        "meta_classification_type": "U",
        "meta_norad_cat_id": 41604,
        "meta_element_set_no": 999,
        "meta_rev_at_epoch": 53093,
        "meta_bstar": 0.00064877,
        "meta_mean_motion_dot": 0.00256097,
        "meta_mean_motion_ddot": 2.75e-05,
        "tle_line1": "1 41604U 16040F   25360.61502836  .00256097  27500-4  64877-3 0  9995",
        "tle_line2": "2 41604  97.0651  32.6597 0003980 120.7736 239.3933 15.95497863530932"
      },
      "geometry": {
        "type": "Point",
        "coordinates": [
          77.21629800326649,
          -79.90817660522966
        ]
      }
    },
    {
      "type": "Feature",
      "properties": {
        "norad_id": 41727,
        "name": "GAOFEN-3",
        "group": "resource",
        "lat": 76.23579607628655,
        "lon": -136.53266701698587,
        "alt_km": 743.444126168135,
        "timestamp": "2025-12-26T23:26:41.810954+00:00",
        "meta_object_name": "GAOFEN-3",
        "meta_object_id": "2016-049A",
        "meta_epoch": "2025-12-26T17:59:01.012128",
        "meta_mean_motion": 14.4221647,
        "meta_eccentricity": 0.0001057,
        "meta_inclination": 98.4041,
        "meta_ra_of_asc_node": 6.1216,
        "meta_arg_of_pericenter": 55.1155,
        "meta_mean_anomaly": 305.0134,
        "meta_ephemeris_type": 0,
        "meta_classification_type": "U",
        "meta_norad_cat_id": 41727,
        "meta_element_set_no": 999,
        "meta_rev_at_epoch": 49379,
        "meta_bstar": -2.6658e-06,
        "meta_mean_motion_dot": -5.2e-07,
        "meta_mean_motion_ddot": 0,
        "tle_line1": "1 41727U 16049A   25360.74931727 -.00000052  00000+0 -26658-5 0  9997",
        "tle_line2": "2 41727  98.4041   6.1216 0001057  55.1155 305.0134 14.42216470493799"
      },
      "geometry": {
        "type": "Point",
        "coordinates": [
          -136.53266701698587,
          76.23579607628655
        ]
      }
    },
    {
      "type": "Feature",
      "properties": {
        "norad_id": 41771,
        "name": "SKYSAT-C4",
        "group": "resource",
        "lat": -23.23530761012819,
        "lon": -157.52210318779626,
        "alt_km": 443.63500483175267,
        "timestamp": "2025-12-26T23:26:41.810963+00:00",
        "meta_object_name": "SKYSAT-C4",
        "meta_object_id": "2016-058B",
        "meta_epoch": "2025-12-26T13:13:33.091680",
        "meta_mean_motion": 15.4264534,
        "meta_eccentricity": 0.0002638,
        "meta_inclination": 96.9364,
        "meta_ra_of_asc_node": 25.0687,
        "meta_arg_of_pericenter": 121.6623,
        "meta_mean_anomaly": 238.4883,
        "meta_ephemeris_type": 0,
        "meta_classification_type": "U",
        "meta_norad_cat_id": 41771,
        "meta_element_set_no": 999,
        "meta_rev_at_epoch": 51880,
        "meta_bstar": 0.00036601,
        "meta_mean_motion_dot": 0.00015874,
        "meta_mean_motion_ddot": 0,
        "tle_line1": "1 41771U 16058B   25360.55107745  .00015874  00000+0  36601-3 0  9993",
        "tle_line2": "2 41771  96.9364  25.0687 0002638 121.6623 238.4883 15.42645340518809"
      },
      "geometry": {
        "type": "Point",
        "coordinates": [
          -157.52210318779626,
          -23.23530761012819
        ]
      }
    },
    {
      "type": "Feature",
      "properties": {
        "norad_id": 41772,
        "name": "SKYSAT-C5",
        "group": "resource",
        "lat": 49.53579397177823,
        "lon": 35.76138187623427,
        "alt_km": 461.8235107632472,
        "timestamp": "2025-12-26T23:26:41.810972+00:00",
        "meta_object_name": "SKYSAT-C5",
        "meta_object_id": "2016-058C",
        "meta_epoch": "2025-12-26T16:57:56.362176",
        "meta_mean_motion": 15.34129911,
        "meta_eccentricity": 0.0004076,
        "meta_inclination": 97.0741,
        "meta_ra_of_asc_node": 43.8739,
        "meta_arg_of_pericenter": 223.4884,
        "meta_mean_anomaly": 136.6039,
        "meta_ephemeris_type": 0,
        "meta_classification_type": "U",
        "meta_norad_cat_id": 41772,
        "meta_element_set_no": 999,
        "meta_rev_at_epoch": 51730,
        "meta_bstar": 0.00028723,
        "meta_mean_motion_dot": 9.416e-05,
        "meta_mean_motion_ddot": 0,
        "tle_line1": "1 41772U 16058C   25360.70690234  .00009416  00000+0  28723-3 0  9992",
        "tle_line2": "2 41772  97.0741  43.8739 0004076 223.4884 136.6039 15.34129911517303"
      },
      "geometry": {
        "type": "Point",
        "coordinates": [
          35.76138187623427,
          49.53579397177823
        ]
      }
    }
  ]
}